[{"OBJECT_NAME":"YAOGAN-36 02A","OBJECT_ID":"2022-133A","EPOCH":"2026-03-10T00:04:36.049728","MEAN_MOTION":15.23118612,"ECCENTRICITY":0.00301484,"INCLINATION":35.0077,"RA_OF_ASC_NODE":23.5078,"ARG_OF_PERICENTER":29.898,"MEAN_ANOMALY":330.345,"EPHEMERIS_TYPE":0,"CLASSIFICATION_TYPE":"U","NORAD_CAT_ID":54042,"ELEMENT_SET_NO":999,"REV_AT_EPOCH":18962,"BSTAR":0.00070143583,"MEAN_MOTION_DOT":0.00017174,"MEAN_MOTION_DDOT":0},{"OBJECT_NAME":"STARLINK-32791","OBJECT_ID":"2025-004V","EPOCH":"2026-03-09T10:55:35.228640","MEAN_MOTION":15.27560353,"ECCENTRICITY":0.00018909,"INCLINATION":43.0014,"RA_OF_ASC_NODE":221.1126,"ARG_OF_PERICENTER":265.4901,"MEAN_ANOMALY":94.5734,"EPHEMERIS_TYPE":0,"CLASSIFICATION_TYPE":"U","NORAD_CAT_ID":62530,"ELEMENT_SET_NO":999,"REV_AT_EPOCH":6642,"BSTAR":0.00096688758,"MEAN_MOTION_DOT":0.00026424,"MEAN_MOTION_DDOT":0}]
